<!doctype html>

<html>

<head>

<title>TLE for NORAD Catalog Number 44277</title>

</head>

<body>

<pre>
STARLINK-41             
1 44277U 19029AU  19302.07188655  .00001982  00000-0  15549-3 0  9997
2 44277  53.0009 182.7361 0002475 108.2148 251.9109 15.05500185 23959

</pre>
	
</body>

</html>
